ISS (UNITY)             
1 25575U 98069F   26071.86901803  .00011348  00000+0  21655-3 0  9995
2 25575  51.6324  56.6367 0007923 186.1410 173.9482 15.48614629554411
ISS (ZVEZDA)            
1 26400U 00037A   26071.86901803  .00011348  00000+0  21655-3 0  9991
2 26400  51.6324  56.6367 0007923 186.1410 173.9482 15.48614629554420
ISS (DESTINY)           
1 26700U 01006B   26071.86901803  .00011348  00000+0  21655-3 0  9991
2 26700  51.6324  56.6367 0007923 186.1410 173.9482 15.48614629554434
OUTPOST MISSION 2       
1 58334U 23174CG  26071.98531223  .00037625  00000+0  64764-3 0  9991
2 58334  97.3967 161.7887 0006990 113.9372 246.2613 15.50973738130886
ISS OBJECT XT           
1 66907U 98067XT  26071.32038583  .00181210  00000+0  14377-2 0  9992
2 66907  51.6249  52.2093 0004715  95.5605 264.5930 15.70168045 15591
ISS OBJECT XU           
1 66908U 98067XU  26071.19109037  .00173902  00000+0  13761-2 0  9996
2 66908  51.6251  52.8423 0004849  95.5022 264.6529 15.70253790 15574
ISS OBJECT XW           
1 66910U 98067XW  26071.95313837  .00158268  00000+0  12885-2 0  9992
2 66910  51.6244  48.9273 0005325 105.6610 254.4975 15.69619162 15696
ISS OBJECT XX           
1 66911U 98067XX  26071.49624840  .00293883  00000+0  17140-2 0  9993
2 66911  51.6223  49.6058 0006975 102.6102 257.5678 15.76985712 15631
ISS OBJECT XY           
1 66912U 98067XY  26071.96806898  .00101500  00000+0  10318-2 0  9995
2 66912  51.6271  50.5463 0003327 107.6228 252.5131 15.64357529 15666
ISS OBJECT YC           
1 67686U 98067YC  26071.22744255  .00056872  00000+0  89399-3 0  9998
2 67686  51.6318  59.1061 0008120 159.6101 200.5215 15.53033071  5182
ISS OBJECT YE           
1 67688U 98067YE  26071.93829696  .00053041  00000+0  84072-3 0  9999
2 67688  51.6314  55.6037 0007968 162.5532 197.5733 15.52834307  5218
